OBJECT_NAME,OBJECT_ID,EPOCH,MEAN_MOTION,ECCENTRICITY,INCLINATION,RA_OF_ASC_NODE,ARG_OF_PERICENTER,MEAN_ANOMALY,EPHEMERIS_TYPE,CLASSIFICATION_TYPE,NORAD_CAT_ID,ELEMENT_SET_NO,REV_AT_EPOCH,BSTAR,MEAN_MOTION_DOT,MEAN_MOTION_DDOT
ONEWEB-0534,2023-029B,2026-06-06T14:58:08.152608,13.20771488,.00018051,87.9180,276.5758,97.6345,262.4993,0,U,55797,999,15975,.35315839E-4,.27E-6,0
ONEWEB-0556,2023-029C,2026-06-06T00:35:08.134944,13.20773126,.0001989,87.9176,276.6951,74.7735,285.3618,0,U,55798,999,15967,.57054E-4,.36E-6,0
ONEWEB-0562,2023-029D,2026-06-06T14:48:25.708608,13.20771523,.00025681,87.9176,276.5577,84.4845,275.6582,0,U,55799,999,15975,-.30398488E-3,-.111E-5,0
ONEWEB-0563,2023-029E,2026-06-06T14:41:10.802112,13.20772262,.0001695,87.9180,276.5893,98.8040,261.3285,0,U,55800,999,15974,-.49252673E-4,-.7E-7,0
ONEWEB-0564,2023-029F,2026-06-06T14:31:28.497216,13.20772014,.00022628,87.9181,276.5640,93.5676,266.5716,0,U,55801,999,15975,-.39105006E-3,-.146E-5,0
ONEWEB-0638,2023-029G,2026-06-06T15:51:04.190688,13.14502099,.00019875,87.8943,291.8516,83.4439,276.6917,0,U,55802,999,15801,.6370139E-3,.249E-5,0
ONEWEB-0639,2023-029H,2026-06-06T15:28:49.330560,13.19725081,.00008344,87.9158,307.0769,108.5947,251.5276,0,U,55803,999,15751,-.22561754E-3,-.77E-6,0
ONEWEB-0640,2023-029J,2026-06-06T10:35:56.529600,13.14501439,.00016873,87.8977,291.8863,79.5803,280.5517,0,U,55804,999,15800,.19129055E-3,.84E-6,0
ONEWEB-0641,2023-029K,2026-06-06T09:54:27.191808,13.19725189,.00016348,87.9164,307.1115,98.8094,261.3223,0,U,55805,999,15749,-.49252789E-3,-.184E-5,0
ONEWEB-0642,2023-029L,2026-06-06T09:47:38.264064,13.19725104,.00011402,87.9156,307.1254,117.9457,242.1792,0,U,55806,999,15748,-.38392854E-3,-.141E-5,0
ONEWEB-0643,2023-029M,2026-06-06T15:21:23.258592,13.14503522,.00014941,87.8947,291.8337,119.2791,240.8488,0,U,55807,999,15800,-.42674564E-3,-.145E-5,0
ONEWEB-0644,2023-029N,2026-06-06T09:40:48.124128,13.19723893,.00015255,87.9160,307.1279,103.9608,256.1694,0,U,55808,999,15748,.82305871E-4,.46E-6,0
ONEWEB-0645,2023-029P,2026-06-06T15:40:10.323264,13.19724060,.00013736,87.9158,307.0748,88.4369,271.6921,0,U,55809,999,15751,.23474652E-4,.22E-6,0
ONEWEB-0646,2023-029Q,2026-06-06T10:37:41.304288,13.19724859,.00015594,87.9153,307.1151,101.3350,258.7958,0,U,55810,999,15747,.30961123E-3,.137E-5,0
ONEWEB-0648,2023-029R,2026-06-06T14:35:41.490240,13.14504384,.00009357,87.8959,291.8124,94.7665,265.3572,0,U,55811,999,15800,.38304656E-3,.155E-5,0
ONEWEB-0649,2023-029S,2026-06-06T03:57:21.581568,13.19724913,.00015661,87.9159,307.1702,94.3141,265.8171,0,U,55812,999,15747,-.76577982E-3,-.294E-5,0
ONEWEB-0650,2023-029T,2026-06-06T03:50:31.477920,13.19729084,.00013262,87.9154,307.1741,110.2953,249.8322,0,U,55813,999,15744,-.47977985E-2,-.1908E-4,0
ONEWEB-0652,2023-029U,2026-06-06T03:10:38.655840,13.14504575,.0002008,87.8952,291.9151,100.0928,260.0428,0,U,55814,999,15791,.65882E-3,.257E-5,0
ONEWEB-0653,2023-029V,2026-06-06T15:35:04.443072,13.14503156,.00018885,87.8954,291.8097,96.6658,263.4686,0,U,55815,999,15801,.24097905E-3,.102E-5,0
ONEWEB-0654,2023-029W,2026-06-06T15:28:13.788192,13.14503152,.00022179,87.8954,291.8068,95.0450,265.0933,0,U,55816,999,15803,.3354059E-4,.25E-6,0
ONEWEB-0656,2023-029X,2026-06-06T01:38:09.895776,13.20771540,.0002356,87.9190,276.6457,96.8524,263.2878,0,U,55817,999,15968,-.18287E-3,-.61E-6,0
ONEWEB-0657,2023-029Y,2026-06-06T03:43:43.277664,13.19723821,.00023692,87.9160,307.1734,109.1371,251.0018,0,U,55818,999,15745,.5925386E-4,.37E-6,0
ONEWEB-0658,2023-029Z,2026-06-06T03:36:53.658720,13.19724024,.0001468,87.9169,307.1491,105.2109,254.9186,0,U,55819,999,15746,-.31618E-4,0,0
ONEWEB-0660,2023-029AA,2026-06-06T09:27:25.658208,13.14502883,.00016121,87.8973,291.8500,92.7837,267.3477,0,U,55820,999,15798,-.39779976E-3,-.135E-5,0
ONEWEB-0661,2023-029AB,2026-06-06T15:46:30.249120,13.14502634,.00017185,87.8946,291.8431,89.8667,270.2659,0,U,55821,999,15800,.63066036E-3,.247E-5,0
ONEWEB-0662,2023-029AC,2026-06-06T14:47:07.412064,13.14501928,.00016027,87.8944,291.8574,92.1221,268.0092,0,U,55822,999,15804,-.15603329E-3,-.45E-6,0
ONEWEB-0663,2023-029AD,2026-06-06T15:11:25.501920,13.20868755,.00014771,87.9191,276.6050,97.8478,262.2823,0,U,55823,999,15975,.1543765E-4,.19E-6,0
ONEWEB-0664,2023-029AE,2026-06-06T14:02:22.236576,13.20771291,.0002004,87.9188,276.5970,85.5147,274.6216,0,U,55824,999,15974,.37796484E-3,.167E-5,0
ONEWEB-0665,2023-029AF,2026-06-06T15:41:56.375808,13.14502925,.00015519,87.8945,291.8245,94.9278,265.2029,0,U,55825,999,15802,.366682E-3,.149E-5,0
ONEWEB-0666,2023-029AG,2026-06-06T13:52:40.967616,13.20770922,.00024774,87.9181,276.5874,112.0167,248.1229,0,U,55826,999,15975,.31291098E-3,.14E-5,0
