ONEWEB-0534             
1 55797U 23029B   26157.62370547  .00000027  00000+0  35316-4 0  9994
2 55797  87.9180 276.5758 0001805  97.6345 262.4993 13.20771488159759
ONEWEB-0556             
1 55798U 23029C   26157.02439971  .00000036  00000+0  57054-4 0  9999
2 55798  87.9176 276.6951 0001989  74.7735 285.3618 13.20773126159673
ONEWEB-0562             
1 55799U 23029D   26157.61696422 -.00000111  00000+0 -30398-3 0  9998
2 55799  87.9176 276.5577 0002568  84.4845 275.6582 13.20771523159751
ONEWEB-0563             
1 55800U 23029E   26157.61193058 -.00000007  00000+0 -49253-4 0  9993
2 55800  87.9180 276.5893 0001695  98.8040 261.3285 13.20772262159748
ONEWEB-0564             
1 55801U 23029F   26157.60519094 -.00000146  00000+0 -39105-3 0  9993
2 55801  87.9181 276.5640 0002262  93.5676 266.5716 13.20772014159750
ONEWEB-0638             
1 55802U 23029G   26157.66046517  .00000249  00000+0  63701-3 0  9996
2 55802  87.8943 291.8516 0001987  83.4439 276.6917 13.14502099158016
ONEWEB-0639             
1 55803U 23029H   26157.64501540 -.00000077  00000+0 -22562-3 0  9998
2 55803  87.9158 307.0769 0000834 108.5947 251.5276 13.19725081157516
ONEWEB-0640             
1 55804U 23029J   26157.44162650  .00000084  00000+0  19129-3 0  9993
2 55804  87.8977 291.8863 0001687  79.5803 280.5517 13.14501439158004
ONEWEB-0641             
1 55805U 23029K   26157.41281472 -.00000184  00000+0 -49253-3 0  9999
2 55805  87.9164 307.1115 0001634  98.8094 261.3223 13.19725189157491
ONEWEB-0642             
1 55806U 23029L   26157.40808176 -.00000141  00000+0 -38393-3 0  9991
2 55806  87.9156 307.1254 0001140 117.9457 242.1792 13.19725104157489
ONEWEB-0643             
1 55807U 23029M   26157.63985253 -.00000145  00000+0 -42675-3 0  9991
2 55807  87.8947 291.8337 0001494 119.2791 240.8488 13.14503522158005
ONEWEB-0644             
1 55808U 23029N   26157.40333477  .00000046  00000+0  82306-4 0  9996
2 55808  87.9160 307.1279 0001525 103.9608 256.1694 13.19723893157482
ONEWEB-0645             
1 55809U 23029P   26157.65289726  .00000022  00000+0  23475-4 0  9997
2 55809  87.9158 307.0748 0001373  88.4369 271.6921 13.19724060157518
ONEWEB-0646             
1 55810U 23029Q   26157.44283917  .00000137  00000+0  30961-3 0  9996
2 55810  87.9153 307.1151 0001559 101.3350 258.7958 13.19724859157472
ONEWEB-0648             
1 55811U 23029R   26157.60811910  .00000155  00000+0  38305-3 0  9995
2 55811  87.8959 291.8124 0000935  94.7665 265.3572 13.14504384158006
ONEWEB-0649             
1 55812U 23029S   26157.16483312 -.00000294  00000+0 -76578-3 0  9998
2 55812  87.9159 307.1702 0001566  94.3141 265.8171 13.19724913157476
ONEWEB-0650             
1 55813U 23029T   26157.16008655 -.00001908  00000+0 -47978-2 0  9996
2 55813  87.9154 307.1741 0001326 110.2953 249.8322 13.19729084157449
ONEWEB-0652             
1 55814U 23029U   26157.13239185  .00000257  00000+0  65882-3 0  9997
2 55814  87.8952 291.9151 0002008 100.0928 260.0428 13.14504575157912
ONEWEB-0653             
1 55815U 23029V   26157.64935698  .00000102  00000+0  24098-3 0  9999
2 55815  87.8954 291.8097 0001888  96.6658 263.4686 13.14503156158017
ONEWEB-0654             
1 55816U 23029W   26157.64460403  .00000025  00000+0  33541-4 0  9995
2 55816  87.8954 291.8068 0002217  95.0450 265.0933 13.14503152158037
ONEWEB-0656             
1 55817U 23029X   26157.06817009 -.00000061  00000+0 -18287-3 0  9991
2 55817  87.9190 276.6457 0002356  96.8524 263.2878 13.20771540159684
ONEWEB-0657             
1 55818U 23029Y   26157.15536201  .00000037  00000+0  59254-4 0  9995
2 55818  87.9160 307.1734 0002369 109.1371 251.0018 13.19723821157453
ONEWEB-0658             
1 55819U 23029Z   26157.15062105  .00000000  00000+0 -31618-4 0  9998
2 55819  87.9169 307.1491 0001468 105.2109 254.9186 13.19724024157463
ONEWEB-0660             
1 55820U 23029AA  26157.39404697 -.00000135  00000+0 -39780-3 0  9999
2 55820  87.8973 291.8500 0001612  92.7837 267.3477 13.14502883157986
ONEWEB-0661             
1 55821U 23029AB  26157.65729455  .00000247  00000+0  63066-3 0  9997
2 55821  87.8946 291.8431 0001718  89.8667 270.2659 13.14502634158008
ONEWEB-0662             
1 55822U 23029AC  26157.61605801 -.00000045  00000+0 -15603-3 0  9994
2 55822  87.8944 291.8574 0001602  92.1221 268.0092 13.14501928158045
ONEWEB-0663             
1 55823U 23029AD  26157.63293405  .00000019  00000+0  15438-4 0  9996
2 55823  87.9191 276.6050 0001477  97.8478 262.2823 13.20868755159755
ONEWEB-0664             
1 55824U 23029AE  26157.58497959  .00000167  00000+0  37796-3 0  9995
2 55824  87.9188 276.5970 0002004  85.5147 274.6216 13.20771291159746
ONEWEB-0665             
1 55825U 23029AF  26157.65412472  .00000149  00000+0  36668-3 0  9998
2 55825  87.8945 291.8245 0001551  94.9278 265.2029 13.14502925158024
ONEWEB-0666             
1 55826U 23029AG  26157.57825194  .00000140  00000+0  31291-3 0  9997
2 55826  87.9181 276.5874 0002477 112.0167 248.1229 13.20770922159757
